[{"OBJECT_NAME":"YUNYAO-1 19","OBJECT_ID":"2024-009B","EPOCH":"2026-03-09T22:41:16.279584","MEAN_MOTION":15.16041229,"ECCENTRICITY":0.00054864,"INCLINATION":49.9832,"RA_OF_ASC_NODE":292.0338,"ARG_OF_PERICENTER":239.381,"MEAN_ANOMALY":120.6601,"EPHEMERIS_TYPE":0,"CLASSIFICATION_TYPE":"U","NORAD_CAT_ID":58759,"ELEMENT_SET_NO":999,"REV_AT_EPOCH":11960,"BSTAR":0.00060829215,"MEAN_MOTION_DOT":0.00011575,"MEAN_MOTION_DDOT":0},{"OBJECT_NAME":"DELTA 1 DEB","OBJECT_ID":"1977-065FR","EPOCH":"2026-03-09T05:35:40.773120","MEAN_MOTION":14.28278383,"ECCENTRICITY":0.04283398,"INCLINATION":29.171,"RA_OF_ASC_NODE":124.9449,"ARG_OF_PERICENTER":345.5547,"MEAN_ANOMALY":13.3121,"EPHEMERIS_TYPE":0,"CLASSIFICATION_TYPE":"U","NORAD_CAT_ID":14563,"ELEMENT_SET_NO":999,"REV_AT_EPOCH":77321,"BSTAR":0.00069118511,"MEAN_MOTION_DOT":4.927e-5,"MEAN_MOTION_DDOT":0}]
